<?xml version="1.0" encoding="UTF-8"?>
<kml xmlns="http://www.opengis.net/kml/2.2" xmlns:gx="http://www.google.com/kml/ext/2.2" xmlns:kml="http://www.opengis.net/kml/2.2" xmlns:atom="http://www.w3.org/2005/Atom">
<Document id="document">
	<name>Projet de carte sans titre</name>
	<gx:CascadingStyle kml:id="__managed_style_056579121B3FD3583DE3_highlight">
		<Style>
			<IconStyle>
				<scale>1.2</scale>
				<Icon>
					<href>https://earth.google.com/earth/document/icon?color=1976d2&amp;id=2000&amp;scale=4</href>
				</Icon>
				<hotSpot x="64" y="128" xunits="pixels" yunits="insetPixels"/>
			</IconStyle>
			<LabelStyle>
			</LabelStyle>
			<LineStyle>
				<color>ff2dc0fb</color>
				<width>4.8</width>
			</LineStyle>
			<PolyStyle>
				<color>40ffffff</color>
			</PolyStyle>
			<BalloonStyle>
				<displayMode>hide</displayMode>
			</BalloonStyle>
		</Style>
	</gx:CascadingStyle>
	<gx:CascadingStyle kml:id="__managed_style_056579121B3FD3583DE3_normal">
		<Style>
			<IconStyle>
				<Icon>
					<href>https://earth.google.com/earth/document/icon?color=1976d2&amp;id=2000&amp;scale=4</href>
				</Icon>
				<hotSpot x="64" y="128" xunits="pixels" yunits="insetPixels"/>
			</IconStyle>
			<LabelStyle>
			</LabelStyle>
			<LineStyle>
				<color>ff2dc0fb</color>
				<width>3.2</width>
			</LineStyle>
			<PolyStyle>
				<color>40ffffff</color>
			</PolyStyle>
			<BalloonStyle>
				<displayMode>hide</displayMode>
			</BalloonStyle>
		</Style>
	</gx:CascadingStyle>
	<StyleMap id="__managed_style_056579121B3FD3583DE3">
		<Pair>
			<key>normal</key>
			<styleUrl>#__managed_style_056579121B3FD3583DE3_normal</styleUrl>
		</Pair>
		<Pair>
			<key>highlight</key>
			<styleUrl>#__managed_style_056579121B3FD3583DE3_highlight</styleUrl>
		</Pair>
	</StyleMap>
	<Placemark id="0B4D146EA43FD382AF89">
		<name>Prenois_bordure_interne</name>
		<LookAt>
			<longitude>4.896473719842314</longitude>
			<latitude>47.35823845087632</latitude>
			<altitude>480.1677623869055</altitude>
			<heading>-54.99439605227608</heading>
			<tilt>1.574157438356943</tilt>
			<gx:fovy>35</gx:fovy>
			<range>2559.311128459813</range>
			<altitudeMode>absolute</altitudeMode>
		</LookAt>
		<styleUrl>#__managed_style_056579121B3FD3583DE3</styleUrl>
		<Polygon>
			<outerBoundaryIs>
				<LinearRing>
					<coordinates>
						4.897445216833127,47.36081616451135,0 4.897550254768337,47.36097262497486,0 4.897644036665745,47.36106039292319,0 4.897752733207752,47.3611147449138,0 4.898059108653765,47.36121449570658,0 4.898331536564915,47.36128482909287,0 4.898434350444585,47.36129762786512,0 4.898540060034547,47.36127859897529,0 4.898935770981955,47.36111107356089,0 4.899191123609818,47.36099199196619,0 4.899473309074274,47.36087109105082,0 4.899756616768938,47.36074241975235,0 4.900148776412476,47.36057787435648,0 4.900696024996924,47.36034007491219,0 4.90128957347647,47.36008599540099,0 4.901656070776039,47.35991795974338,0 4.901893845199609,47.35981426998851,0 4.902089732556664,47.35978400269686,0 4.902251329088081,47.3597942032461,0 4.902383885343113,47.35981809692612,0 4.902486409695161,47.35986639822709,0 4.902610163920968,47.35993989266468,0 4.90271608478253,47.36007839913717,0 4.902742293518911,47.36020969370969,0 4.902695742118956,47.36034664448883,0 4.902566438964473,47.36050497764042,0 4.902201329325811,47.36085419774393,0 4.90198066408539,47.3610541475515,0 4.901727003483587,47.36127168021731,0 4.901374134809027,47.36153993580098,0 4.901072154042733,47.36174666168,0 4.900802369636938,47.36192485438819,0 4.900610224117104,47.36204313003115,0 4.90045911795524,47.36218393469722,0 4.900387681228747,47.36227413714235,0 4.900266291602495,47.36249146819377,0 4.900264881385212,47.36268817066883,0 4.900303153709283,47.36285778800783,0 4.900393038839621,47.36297063337013,0 4.900542693816532,47.36308300511483,0 4.900706433215552,47.3631646984451,0 4.900892775858847,47.36320487977969,0 4.901084784815922,47.36322775547837,0 4.901532110647818,47.36323858315127,0 4.90186440268886,47.36325240490579,0 4.902227307960274,47.36326519630116,0 4.902535248180058,47.36330649382034,0 4.90272917079886,47.36335184801579,0 4.902926882497153,47.36340406056288,0 4.903310472172658,47.36356677749028,0 4.903484325034963,47.36367447733729,0 4.903674617852946,47.3638433457458,0 4.903855890714707,47.36405354529162,0 4.903926613174376,47.36420021232328,0 4.90401204081178,47.36449253967739,0 4.904060361934864,47.36472857152155,0 4.904126569331789,47.36492397990215,0 4.90420609832436,47.36510602942168,0 4.904408630385682,47.36531043627599,0 4.904716292759279,47.36552630493457,0 4.905031831149076,47.36575937124552,0 4.905184938745737,47.36589587721108,0 4.905322408078594,47.36605829979528,0 4.905415127133188,47.36626812065558,0 4.905449634925391,47.36647629958556,0 4.905435005834593,47.36668525417928,0 4.905325192739395,47.36694410545503,0 4.905187470636074,47.36712386288236,0 4.905009043077506,47.36727126152216,0 4.90477391297286,47.36738881810698,0 4.904650224318081,47.36743698216481,0 4.904327287552412,47.36748494711068,0 4.904140403372502,47.36747970370948,0 4.903886512905251,47.36744798644941,0 4.903729152953701,47.36739581331589,0 4.903525702798499,47.36727616329361,0 4.902662643568356,47.36669729910637,0 4.901886733231056,47.36616435478881,0 4.901608484690687,47.36598130214713,0 4.901191868515909,47.36567661243044,0 4.900061537922664,47.36491438649495,0 4.899458424343566,47.36452199327768,0 4.897043733000189,47.3628826429857,0 4.895453293408922,47.36180805282854,0 4.894379445660359,47.36105521320075,0 4.894029941279703,47.36083577875182,0 4.893548233562188,47.36051711676971,0 4.893326549758235,47.36034844535772,0 4.893050901983688,47.36015167295746,0 4.892811175153422,47.35990943885902,0 4.892591984958807,47.35965879797511,0 4.892528470726933,47.3595203049403,0 4.892443143459482,47.35937886140314,0 4.8923936003585,47.35922096830623,0 4.89238072003753,47.35907331982899,0 4.89242690274293,47.35881169250577,0 4.892466609157847,47.35868510000159,0 4.892566265419669,47.35853556326122,0 4.892680279434818,47.35841360064593,0 4.892804041364542,47.35827078602171,0 4.892966031690975,47.35816565801722,0 4.893142066457258,47.35806143136494,0 4.893330452997966,47.35798254382136,0 4.893508311711983,47.35792244797791,0 4.893744432559977,47.3578748898309,0 4.893978256513096,47.35783264218828,0 4.89421086064721,47.35783436325363,0 4.894418987376701,47.3578332297507,0 4.894844768801039,47.3578516847236,0 4.895270808613807,47.35789873785254,0 4.895779858104328,47.35795651760682,0 4.896107272177161,47.35797590173224,0 4.896352739756584,47.35800234164277,0 4.896645217208042,47.35806974031696,0 4.896901399710314,47.35814464779271,0 4.897029238222091,47.35821583590943,0 4.897170882226036,47.358331042773,0 4.897294525042541,47.35842888901234,0 4.897359449582027,47.35855420998037,0 4.897442190817869,47.3586865518138,0 4.897448033823888,47.35885123450508,0 4.897448422033173,47.35902228318289,0 4.897345382519951,47.35920563087229,0 4.897257702604123,47.35936905431219,0 4.897216574620504,47.35956952391351,0 4.897203895668556,47.35977258158524,0 4.897181972764044,47.35999758560889,0 4.897204754726721,47.3602480915745,0 4.897298374553771,47.36049522311347,0 4.897445216833127,47.36081616451135,0 
					</coordinates>
				</LinearRing>
			</outerBoundaryIs>
		</Polygon>
	</Placemark>
	<Placemark id="08D260D31E3FD3863D6C">
		<name>Prenois_bordure_externe</name>
		<LookAt>
			<longitude>4.896263419825293</longitude>
			<latitude>47.35865377965148</latitude>
			<altitude>482.8974937778856</altitude>
			<heading>313.7946447270648</heading>
			<tilt>0</tilt>
			<gx:fovy>35</gx:fovy>
			<range>615.4879652128875</range>
			<altitudeMode>absolute</altitudeMode>
		</LookAt>
		<styleUrl>#__managed_style_056579121B3FD3583DE3</styleUrl>
		<Polygon>
			<outerBoundaryIs>
				<LinearRing>
					<coordinates>
						4.897427676382435,47.35930409270876,0 4.897318747459254,47.35962021129472,0 4.897292043799391,47.35986865765821,0 4.897308030213942,47.36016502097122,0 4.897394918083062,47.36047432416384,0 4.897496004126777,47.36070483181366,0 4.897602702147557,47.36086441936101,0 4.897699544390301,47.36098952533736,0 4.897746470728976,47.36102865060813,0 4.897819770551788,47.36106210799429,0 4.897917141413641,47.36108431913022,0 4.898103862681189,47.36114573157371,0 4.898226711189036,47.36117346275054,0 4.898347726513816,47.36121511116657,0 4.898424744859597,47.36121410718843,0 4.898525523879826,47.36119872352636,0 4.898633736494915,47.36114954773094,0 4.899499880924694,47.36077333486388,0 4.900260306334754,47.36043642802875,0 4.90064563414797,47.36027156680733,0 4.90131804114913,47.35997380932462,0 4.90169565674676,47.35981523697943,0 4.901814435473635,47.35976906349352,0 4.901928928669159,47.35972749246688,0 4.902056809747545,47.35970751999207,0 4.90224106476373,47.35970618903807,0 4.902408407927997,47.35973950101615,0 4.902511351620246,47.35977963712465,0 4.902646572190847,47.35984555753098,0 4.902745913660458,47.35992473999936,0 4.902820542998048,47.36004488632227,0 4.902866329865205,47.36015528370111,0 4.902852906746369,47.36027426875329,0 4.902808624035511,47.36036420001775,0 4.902748777438233,47.36046306856473,0 4.902109338617919,47.3610715519489,0 4.901747560552754,47.36137958030906,0 4.901385098712692,47.36165034838535,0 4.901225086723374,47.36174471030083,0 4.900938372802268,47.36193580666646,0 4.900783329917897,47.36204830616305,0 4.900655406733812,47.36214311557892,0 4.900534473116592,47.36225576670882,0 4.90044659610938,47.36237995885834,0 4.900393933041293,47.36249159534642,0 4.900383365557845,47.36262385986571,0 4.900367207985465,47.36270149521245,0 4.900414246077767,47.36280069771728,0 4.900481386126428,47.36289619413333,0 4.900560325601324,47.36297390812696,0 4.900625943780874,47.36302635210365,0 4.900759747703097,47.36309019290363,0 4.900857450534541,47.36312602394807,0 4.900995375942417,47.36315045469078,0 4.901159316370789,47.36315252730537,0 4.901348359734932,47.36315131446863,0 4.90164644861575,47.36315894948455,0 4.902010811135147,47.36316089399028,0 4.902346457858561,47.36319823725811,0 4.902639545651737,47.36324088325869,0 4.902882697272714,47.36330110541545,0 4.903091161937885,47.36337165765485,0 4.903267623720051,47.36345488462895,0 4.903489534110614,47.36357620834596,0 4.90363468206465,47.36367458477285,0 4.903759171204967,47.36378765597657,0 4.903895322978222,47.36394721351217,0 4.903970279707426,47.36406419243696,0 4.904043819489969,47.3642152657349,0 4.904085166754662,47.36434800500357,0 4.90414682150059,47.36457402754421,0 4.904160869257888,47.36470597821215,0 4.904211698197585,47.36484138672834,0 4.904305140722462,47.36503072629848,0 4.904399408250766,47.36515666401012,0 4.904478794084492,47.36523622540782,0 4.904629606118734,47.36534820720173,0 4.904881801524452,47.36553099885583,0 4.905137611789443,47.36571171639045,0 4.905275892058478,47.36583873838663,0 4.905404081195983,47.36597618573511,0 4.905467240695454,47.36607684675204,0 4.905549162525813,47.36622448426471,0 4.905604618817971,47.36640353090345,0 4.905611430758164,47.36655040464249,0 4.905585355904547,47.3667339249705,0 4.905528538505301,47.36687984397595,0 4.905429346573193,47.36704297571336,0 4.905337149863747,47.36714964024551,0 4.905212230183427,47.36726360149803,0 4.905087519389115,47.36736410513683,0 4.904969277913485,47.36742660242432,0 4.904824615275876,47.3674908018353,0 4.90469887883086,47.36752658612369,0 4.904504863637968,47.36757740635105,0 4.904298971775249,47.36759252757895,0 4.904131911386886,47.367591833073,0 4.903963400562771,47.367569683483,0 4.90382799791244,47.36753895307067,0 4.903690195440986,47.36749172668499,0 4.903563894658514,47.36744049900029,0 4.902521900559169,47.36674558667802,0 4.901361503036979,47.36596548855258,0 4.899749639686806,47.36486485938592,0 4.895173098640555,47.36176792561456,0 4.893364518398126,47.36051193599091,0 4.892973205063232,47.36022033879827,0 4.892831297246114,47.36009414105794,0 4.892640311429853,47.35988507565925,0 4.892512130013291,47.3597165129483,0 4.892379746812729,47.35951821905508,0 4.892318938871007,47.35936058250101,0 4.892278451094596,47.35923944779842,0 4.892265007679995,47.35904556199697,0 4.892281964089451,47.35889967726627,0 4.892319504044316,47.35876531864356,0 4.892390241479285,47.35859710832685,0 4.892493286198443,47.35844368683998,0 4.892582074606748,47.35834218389565,0 4.892721488826657,47.35820656971195,0 4.892885121264936,47.35810404729693,0 4.89307681851415,47.35799522232232,0 4.893243390466182,47.35791796506877,0 4.893518879098108,47.35784300073151,0 4.893750732662216,47.35779068165466,0 4.893946448484085,47.35776549705756,0 4.894179741031945,47.35775010945754,0 4.894716178890379,47.35776698144814,0 4.895827372078503,47.35788401672487,0 4.896124380719704,47.35792091010407,0 4.896403787802235,47.35795216962818,0 4.896563852495555,47.3579701871893,0 4.896685781294432,47.35799336852889,0 4.896879154218665,47.35805711725624,0 4.897018633755026,47.35811984835406,0 4.897170884173619,47.3582066861567,0 4.897283701425879,47.35829264160211,0 4.8973710819443,47.35838273720194,0 4.897450693094392,47.35847962175895,0 4.897501733971596,47.35857102596659,0 4.897526636337926,47.35865313934685,0 4.897559705627312,47.35874352280877,0 4.897568071852525,47.3588331332158,0 4.897555298462919,47.3589337840373,0 4.897539913694859,47.35906823284079,0 4.897427676382435,47.35930409270876,0 
					</coordinates>
				</LinearRing>
			</outerBoundaryIs>
		</Polygon>
	</Placemark>
</Document>
</kml>
